FLOCK 4H-16             
1 66719U 25276BF  26202.12646361  .00004587  00000+0  21489-3 0  9992
2 66719  97.4218 275.1708 0003187 225.9037 134.1936 15.20195231 35575
FLOCK 4H-18             
1 66721U 25276BH  26202.13285643  .00005065  00000+0  23736-3 0  9997
2 66721  97.4161 274.9855 0002302 255.3806 104.7174 15.20139113 35578
FLOCK 4H-19             
1 66722U 25276BJ  26202.12749121  .00004013  00000+0  18236-3 0  9994
2 66722  97.4161 275.4535 0002776 138.8179 221.3266 15.21323456 34891
FLOCK 4H-20             
1 66723U 25276BK  26202.19476586  .00004750  00000+0  21422-3 0  9993
2 66723  97.4198 275.6303 0003420 155.0313 205.1089 15.21491101 34868
FLOCK 4H-21             
1 66724U 25276BL  26202.16197750  .00004933  00000+0  22506-3 0  9991
2 66724  97.4162 275.4152 0003257 154.0737 206.0663 15.21074092 34850
FLOCK 4H-22             
1 66725U 25276BM  26202.14270441  .00005461  00000+0  25249-3 0  9993
2 66725  97.4155 275.1019 0001135 243.2892 116.8227 15.20572441 35583
FLOCK 4H-23             
1 66726U 25276BN  26202.13227962  .00004885  00000+0  22916-3 0  9990
2 66726  97.4223 275.1775 0003477 216.2389 143.8611 15.20116556 35578
FLOCK 4H-24             
1 66727U 25276BP  26202.18245778  .00004862  00000+0  22737-3 0  9997
2 66727  97.4217 275.2565 0002688 234.4019 125.6966 15.20227642 35586
FLOCK 4H-25             
1 66728U 25276BQ  26202.11498765  .00004448  00000+0  20374-3 0  9992
2 66728  97.4176 275.3607 0002102 122.2571 237.8869 15.20991327 34874
FLOCK 4H-26             
1 66729U 25276BR  26202.15115007  .00004984  00000+0  23487-3 0  9995
2 66729  97.4173 275.0015 0003559 235.6741 124.4157 15.19948470 35575
FLOCK 4H-27             
1 66730U 25276BS  26202.14629252  .00005003  00000+0  22993-3 0  9992
2 66730  97.4152 275.2412 0001825 125.2301 234.9106 15.20814663 35598
FLOCK 4H-29             
1 66732U 25276BU  26202.19595745  .00004787  00000+0  22481-3 0  9998
2 66732  97.4152 275.0275 0001839 244.5289 115.5756 15.20090038 35586
FLOCK 4H-30             
1 66733U 25276BV  26202.18737247  .00005105  00000+0  23868-3 0  9998
2 66733  97.4215 275.2324 0003028 233.3633 126.7324 15.20215532 35588
FLOCK 4H-31             
1 66734U 25276BW  26202.14341080  .00004989  00000+0  23488-3 0  9998
2 66734  97.4151 274.9420 0002294 242.0530 118.0473 15.19985501 35574
FLOCK 4H-32             
1 66735U 25276BX  26202.19667618  .00004601  00000+0  21612-3 0  9990
2 66735  97.4208 275.1962 0003378 232.0319 128.0612 15.20105820 35587
FLOCK 4H-33             
1 66736U 25276BY  26202.15040819  .00004816  00000+0  21880-3 0  9990
2 66736  97.4205 275.5535 0003208 148.2663 211.8767 15.21232892 35603
