{"fetched_at":"2026-07-21T17:53:07.094Z","source":"https://celestrak.org/NORAD/elements/gp.php?GROUP=planet&FORMAT=JSON","constellation":"superdove","records":[{"OBJECT_NAME":"FLOCK 4H-16","OBJECT_ID":"2025-276BF","EPOCH":"2026-07-21T03:02:06.455904","CLASSIFICATION_TYPE":"U","MEAN_MOTION":15.20195231,"ECCENTRICITY":0.00031877,"INCLINATION":97.4218,"RA_OF_ASC_NODE":275.1708,"ARG_OF_PERICENTER":225.9037,"MEAN_ANOMALY":134.1936,"EPHEMERIS_TYPE":0,"NORAD_CAT_ID":66719,"ELEMENT_SET_NO":999,"REV_AT_EPOCH":3557,"BSTAR":0.00021488608,"MEAN_MOTION_DOT":0.00004587,"MEAN_MOTION_DDOT":0},{"OBJECT_NAME":"FLOCK 4H-18","OBJECT_ID":"2025-276BH","EPOCH":"2026-07-21T03:11:18.795552","CLASSIFICATION_TYPE":"U","MEAN_MOTION":15.20139113,"ECCENTRICITY":0.00023025,"INCLINATION":97.4161,"RA_OF_ASC_NODE":274.9855,"ARG_OF_PERICENTER":255.3806,"MEAN_ANOMALY":104.7174,"EPHEMERIS_TYPE":0,"NORAD_CAT_ID":66721,"ELEMENT_SET_NO":999,"REV_AT_EPOCH":3557,"BSTAR":0.00023735543,"MEAN_MOTION_DOT":0.00005065,"MEAN_MOTION_DDOT":0},{"OBJECT_NAME":"FLOCK 4H-19","OBJECT_ID":"2025-276BJ","EPOCH":"2026-07-21T03:03:35.240544","CLASSIFICATION_TYPE":"U","MEAN_MOTION":15.21323456,"ECCENTRICITY":0.00027768,"INCLINATION":97.4161,"RA_OF_ASC_NODE":275.4535,"ARG_OF_PERICENTER":138.8179,"MEAN_ANOMALY":221.3266,"EPHEMERIS_TYPE":0,"NORAD_CAT_ID":66722,"ELEMENT_SET_NO":999,"REV_AT_EPOCH":3489,"BSTAR":0.00018236006,"MEAN_MOTION_DOT":0.00004013,"MEAN_MOTION_DDOT":0},{"OBJECT_NAME":"FLOCK 4H-20","OBJECT_ID":"2025-276BK","EPOCH":"2026-07-21T04:40:27.770304","CLASSIFICATION_TYPE":"U","MEAN_MOTION":15.21491101,"ECCENTRICITY":0.00034201,"INCLINATION":97.4198,"RA_OF_ASC_NODE":275.6303,"ARG_OF_PERICENTER":155.0313,"MEAN_ANOMALY":205.1089,"EPHEMERIS_TYPE":0,"NORAD_CAT_ID":66723,"ELEMENT_SET_NO":999,"REV_AT_EPOCH":3486,"BSTAR":0.00021421578,"MEAN_MOTION_DOT":0.0000475,"MEAN_MOTION_DDOT":0},{"OBJECT_NAME":"FLOCK 4H-21","OBJECT_ID":"2025-276BL","EPOCH":"2026-07-21T03:53:14.856000","CLASSIFICATION_TYPE":"U","MEAN_MOTION":15.21074092,"ECCENTRICITY":0.00032572,"INCLINATION":97.4162,"RA_OF_ASC_NODE":275.4152,"ARG_OF_PERICENTER":154.0737,"MEAN_ANOMALY":206.0663,"EPHEMERIS_TYPE":0,"NORAD_CAT_ID":66724,"ELEMENT_SET_NO":999,"REV_AT_EPOCH":3485,"BSTAR":0.00022506455,"MEAN_MOTION_DOT":0.00004933,"MEAN_MOTION_DDOT":0},{"OBJECT_NAME":"FLOCK 4H-22","OBJECT_ID":"2025-276BM","EPOCH":"2026-07-21T03:25:29.661024","CLASSIFICATION_TYPE":"U","MEAN_MOTION":15.20572441,"ECCENTRICITY":0.00011354,"INCLINATION":97.4155,"RA_OF_ASC_NODE":275.1019,"ARG_OF_PERICENTER":243.2892,"MEAN_ANOMALY":116.8227,"EPHEMERIS_TYPE":0,"NORAD_CAT_ID":66725,"ELEMENT_SET_NO":999,"REV_AT_EPOCH":3558,"BSTAR":0.00025249006,"MEAN_MOTION_DOT":0.00005461,"MEAN_MOTION_DDOT":0},{"OBJECT_NAME":"FLOCK 4H-23","OBJECT_ID":"2025-276BN","EPOCH":"2026-07-21T03:10:28.959168","CLASSIFICATION_TYPE":"U","MEAN_MOTION":15.20116556,"ECCENTRICITY":0.00034776,"INCLINATION":97.4223,"RA_OF_ASC_NODE":275.1775,"ARG_OF_PERICENTER":216.2389,"MEAN_ANOMALY":143.8611,"EPHEMERIS_TYPE":0,"NORAD_CAT_ID":66726,"ELEMENT_SET_NO":999,"REV_AT_EPOCH":3557,"BSTAR":0.00022915603,"MEAN_MOTION_DOT":0.00004885,"MEAN_MOTION_DDOT":0},{"OBJECT_NAME":"FLOCK 4H-24","OBJECT_ID":"2025-276BP","EPOCH":"2026-07-21T04:22:44.352192","CLASSIFICATION_TYPE":"U","MEAN_MOTION":15.20227642,"ECCENTRICITY":0.00026889,"INCLINATION":97.4217,"RA_OF_ASC_NODE":275.2565,"ARG_OF_PERICENTER":234.4019,"MEAN_ANOMALY":125.6966,"EPHEMERIS_TYPE":0,"NORAD_CAT_ID":66727,"ELEMENT_SET_NO":999,"REV_AT_EPOCH":3558,"BSTAR":0.00022737432,"MEAN_MOTION_DOT":0.00004862,"MEAN_MOTION_DDOT":0},{"OBJECT_NAME":"FLOCK 4H-25","OBJECT_ID":"2025-276BQ","EPOCH":"2026-07-21T02:45:34.932960","CLASSIFICATION_TYPE":"U","MEAN_MOTION":15.20991327,"ECCENTRICITY":0.00021027,"INCLINATION":97.4176,"RA_OF_ASC_NODE":275.3607,"ARG_OF_PERICENTER":122.2571,"MEAN_ANOMALY":237.8869,"EPHEMERIS_TYPE":0,"NORAD_CAT_ID":66728,"ELEMENT_SET_NO":999,"REV_AT_EPOCH":3487,"BSTAR":0.00020373975,"MEAN_MOTION_DOT":0.00004448,"MEAN_MOTION_DDOT":0},{"OBJECT_NAME":"FLOCK 4H-26","OBJECT_ID":"2025-276BR","EPOCH":"2026-07-21T03:37:39.366048","CLASSIFICATION_TYPE":"U","MEAN_MOTION":15.1994847,"ECCENTRICITY":0.00035593,"INCLINATION":97.4173,"RA_OF_ASC_NODE":275.0015,"ARG_OF_PERICENTER":235.6741,"MEAN_ANOMALY":124.4157,"EPHEMERIS_TYPE":0,"NORAD_CAT_ID":66729,"ELEMENT_SET_NO":999,"REV_AT_EPOCH":3557,"BSTAR":0.00023487099,"MEAN_MOTION_DOT":0.00004984,"MEAN_MOTION_DDOT":0},{"OBJECT_NAME":"FLOCK 4H-27","OBJECT_ID":"2025-276BS","EPOCH":"2026-07-21T03:30:39.673728","CLASSIFICATION_TYPE":"U","MEAN_MOTION":15.20814663,"ECCENTRICITY":0.00018252,"INCLINATION":97.4152,"RA_OF_ASC_NODE":275.2412,"ARG_OF_PERICENTER":125.2301,"MEAN_ANOMALY":234.9106,"EPHEMERIS_TYPE":0,"NORAD_CAT_ID":66730,"ELEMENT_SET_NO":999,"REV_AT_EPOCH":3559,"BSTAR":0.00022993261,"MEAN_MOTION_DOT":0.00005003,"MEAN_MOTION_DDOT":0},{"OBJECT_NAME":"FLOCK 4H-29","OBJECT_ID":"2025-276BU","EPOCH":"2026-07-21T04:42:10.723680","CLASSIFICATION_TYPE":"U","MEAN_MOTION":15.20090038,"ECCENTRICITY":0.00018395,"INCLINATION":97.4152,"RA_OF_ASC_NODE":275.0275,"ARG_OF_PERICENTER":244.5289,"MEAN_ANOMALY":115.5756,"EPHEMERIS_TYPE":0,"NORAD_CAT_ID":66732,"ELEMENT_SET_NO":999,"REV_AT_EPOCH":3558,"BSTAR":0.00022481177,"MEAN_MOTION_DOT":0.00004787,"MEAN_MOTION_DDOT":0},{"OBJECT_NAME":"FLOCK 4H-30","OBJECT_ID":"2025-276BV","EPOCH":"2026-07-21T04:29:48.981408","CLASSIFICATION_TYPE":"U","MEAN_MOTION":15.20215532,"ECCENTRICITY":0.00030289,"INCLINATION":97.4215,"RA_OF_ASC_NODE":275.2324,"ARG_OF_PERICENTER":233.3633,"MEAN_ANOMALY":126.7324,"EPHEMERIS_TYPE":0,"NORAD_CAT_ID":66733,"ELEMENT_SET_NO":999,"REV_AT_EPOCH":3558,"BSTAR":0.00023868284,"MEAN_MOTION_DOT":0.00005105,"MEAN_MOTION_DDOT":0},{"OBJECT_NAME":"FLOCK 4H-31","OBJECT_ID":"2025-276BW","EPOCH":"2026-07-21T03:26:30.693120","CLASSIFICATION_TYPE":"U","MEAN_MOTION":15.19985501,"ECCENTRICITY":0.00022942,"INCLINATION":97.4151,"RA_OF_ASC_NODE":274.942,"ARG_OF_PERICENTER":242.053,"MEAN_ANOMALY":118.0473,"EPHEMERIS_TYPE":0,"NORAD_CAT_ID":66734,"ELEMENT_SET_NO":999,"REV_AT_EPOCH":3557,"BSTAR":0.00023487957,"MEAN_MOTION_DOT":0.00004989,"MEAN_MOTION_DDOT":0},{"OBJECT_NAME":"FLOCK 4H-32","OBJECT_ID":"2025-276BX","EPOCH":"2026-07-21T04:43:12.821952","CLASSIFICATION_TYPE":"U","MEAN_MOTION":15.2010582,"ECCENTRICITY":0.00033781,"INCLINATION":97.4208,"RA_OF_ASC_NODE":275.1962,"ARG_OF_PERICENTER":232.0319,"MEAN_ANOMALY":128.0612,"EPHEMERIS_TYPE":0,"NORAD_CAT_ID":66735,"ELEMENT_SET_NO":999,"REV_AT_EPOCH":3558,"BSTAR":0.0002161172,"MEAN_MOTION_DOT":0.00004601,"MEAN_MOTION_DDOT":0},{"OBJECT_NAME":"FLOCK 4H-33","OBJECT_ID":"2025-276BY","EPOCH":"2026-07-21T03:36:35.267616","CLASSIFICATION_TYPE":"U","MEAN_MOTION":15.21232892,"ECCENTRICITY":0.00032084,"INCLINATION":97.4205,"RA_OF_ASC_NODE":275.5535,"ARG_OF_PERICENTER":148.2663,"MEAN_ANOMALY":211.8767,"EPHEMERIS_TYPE":0,"NORAD_CAT_ID":66736,"ELEMENT_SET_NO":999,"REV_AT_EPOCH":3560,"BSTAR":0.00021880311,"MEAN_MOTION_DOT":0.00004816,"MEAN_MOTION_DDOT":0}]}
